H1 CPF  1  DLR 2021 03 11 10  5702 technosat            
H2  1704205 6203    42829 2021 03 11 00 00 00 2021 03 18 00 00 00    60 1 1  0 0 0
H9
10 0 59286  50400.000000  0       -258075.847      -2272299.214       6569720.018
10 0 59286  50460.000000  0       -400017.094      -1854071.240       6692163.660
10 0 59286  50520.000000  0       -536569.845      -1426796.084       6786146.441
10 0 59286  50580.000000  0       -667086.372       -992327.560       6851267.191
10 0 59286  50640.000000  0       -790960.726       -552555.504       6887247.180
10 0 59286  50700.000000  0       -907631.583       -109397.447       6893931.288
10 0 59286  50760.000000  0      -1016584.819        335209.810       6871288.668
10 0 59286  50820.000000  0      -1117355.786        779318.763       6819412.909
10 0 59286  50880.000000  0      -1209531.320       1220979.803       6738521.667
10 0 59286  50940.000000  0      -1292751.456       1658249.842       6628955.844
10 0 59286  51000.000000  0      -1366710.876       2089200.973       6491178.238
10 0 59286  51060.000000  0      -1431160.040       2511929.073       6325771.684
10 0 59286  51120.000000  0      -1485906.037       2924562.358       6133436.726
10 0 59286  51180.000000  0      -1530813.133       3325269.850       5914988.725
10 0 59286  51240.000000  0      -1565802.943       3712269.637       5671354.521
10 0 59286  51300.000000  0      -1590854.334       4083837.016       5403568.695
10 0 59286  51360.000000  0      -1606003.048       4438312.484       5112769.285
10 0 59286  51420.000000  0      -1611341.011       4774109.423       4800192.990
10 0 59286  51480.000000  0      -1607015.312       5089721.501       4467169.935
10 0 59286  51540.000000  0      -1593226.850       5383729.723       4115118.004
10 0 59286  51600.000000  0      -1570228.696       5654809.078       3745536.775
10 0 59286  51660.000000  0      -1538324.265       5901734.794       3360001.106
10 0 59286  51720.000000  0      -1497865.217       6123388.188       2960154.291
10 0 59286  51780.000000  0      -1449249.018       6318762.015       2547700.887
10 0 59286  51840.000000  0      -1392916.206       6486965.333       2124399.220
10 0 59286  51900.000000  0      -1329347.426       6627227.727       1692053.625
10 0 59286  51960.000000  0      -1259060.278       6738902.954       1252506.496
10 0 59286  52020.000000  0      -1182605.960       6821471.992        807630.171
10 0 59286  52080.000000  0      -1100565.752       6874545.503        359318.689
10 0 59286  52140.000000  0      -1013547.349       6897865.719        -90520.554
10 0 59286  52200.000000  0       -922181.015       6891307.669       -539975.304
10 0 59286  52260.000000  0       -827115.638       6854879.634       -987136.977
10 0 59286  52320.000000  0       -729014.731       6788722.884      -1430109.086
10 0 59286  52380.000000  0       -628552.377       6693110.761      -1867015.500
10 0 59286  52440.000000  0       -526409.178       6568447.160      -2296008.519
10 0 59286  52500.000000  0       -423268.205       6415264.411      -2715276.769
10 0 59286  52560.000000  0       -319810.986       6234220.605      -3123052.867
10 0 59286  52620.000000  0       -216713.502       6026096.355      -3517620.865
10 0 59286  52680.000000  0       -114642.260       5791791.000      -3897323.402
10 0 59286  52740.000000  0        -14250.465       5532318.285      -4260568.565
10 0 59286  52800.000000  0         83825.690       5248801.532      -4605836.368
10 0 59286  52860.000000  0        178970.619       4942468.377      -4931684.858
10 0 59286  52920.000000  0        270592.784       4614645.106      -5236755.850
10 0 59286  52980.000000  0        358127.964       4266750.573      -5519780.279
10 0 59286  53040.000000  0        441042.330       3900289.759      -5779583.102
10 0 59286  53100.000000  0        518835.314       3516847.007      -6015087.787
10 0 59286  53160.000000  0        591042.260       3118078.994      -6225320.328
10 0 59286  53220.000000  0        657236.860       2705707.479      -6409412.850
10 0 59286  53280.000000  0        717033.382       2281511.841      -6566606.742
10 0 59286  53340.000000  0        770088.657       1847321.501      -6696255.380
10 0 59286  53400.000000  0        816103.810       1405008.121      -6797826.490
10 0 59286  53460.000000  0        854825.723        956477.665      -6870903.987
10 0 59286  53520.000000  0        886048.298        503662.425      -6915189.438
10 0 59286  53580.000000  0        909613.443         48512.906      -6930503.119
10 0 59286  53640.000000  0        925411.786       -407010.367      -6916784.559
10 0 59286  53700.000000  0        933383.121       -860944.971      -6874092.636
10 0 59286  53760.000000  0        933516.630      -1311334.706      -6802605.302
10 0 59286  53820.000000  0        925850.834      -1756237.688      -6702618.893
10 0 59286  53880.000000  0        910473.296      -2193734.359      -6574547.076
10 0 59286  53940.000000  0        887520.108      -2621935.534      -6418919.473
10 0 59286  54000.000000  0        857175.054      -3038990.445      -6236379.773
10 0 59286  54060.000000  0        819668.485      -3443094.649      -6027683.344
10 0 59286  54120.000000  0        775276.004      -3832497.723      -5793694.375
10 0 59286  54180.000000  0        724316.915      -4205510.762      -5535382.665
10 0 59286  54240.000000  0        667152.439      -4560513.706      -5253820.011
10 0 59286  54300.000000  0        604183.654      -4895962.458      -4950176.193
10 0 59286  54360.000000  0        535849.218      -5210395.772      -4625714.520
10 0 59286  54420.000000  0        462622.866      -5502441.843      -4281786.947
10 0 59286  54480.000000  0        385010.698      -5770824.567      -3919828.766
10 0 59286  54540.000000  0        303548.266      -6014369.391      -3541352.909
10 0 59286  54600.000000  0        218797.481      -6232008.778      -3147943.919
10 0 59286  54660.000000  0        131343.356      -6422787.282      -2741251.578
10 0 59286  54720.000000  0         41790.588      -6585866.186      -2322984.153
10 0 59286  54780.000000  0        -49240.002      -6720527.614      -1894901.294
10 0 59286  54840.000000  0       -141115.149      -6826178.084      -1458806.642
10 0 59286  54900.000000  0       -233192.913      -6902351.487      -1016540.218
10 0 59286  54960.000000  0       -324826.528      -6948711.498       -569970.581
10 0 59286  55020.000000  0       -415368.301      -6965053.354       -120986.817
10 0 59286  55080.000000  0       -504173.537      -6951305.037        328509.569
10 0 59286  55140.000000  0       -590604.480      -6907527.864        776612.882
10 0 59286  55200.000000  0       -674034.233      -6833916.427       1221421.560
10 0 59286  55260.000000  0       -753850.636      -6730797.860       1661046.502
10 0 59286  55320.000000  0       -829460.069      -6598630.453       2093619.377
10 0 59286  55380.000000  0       -900291.168      -6438001.614       2517300.817
10 0 59286  55440.000000  0       -965798.394      -6249625.234       2930288.542
10 0 59286  55500.000000  0      -1025465.419      -6034338.328       3330825.297
10 0 59286  55560.000000  0      -1078808.393      -5793097.125       3717206.459
10 0 59286  55620.000000  0      -1125379.086      -5526972.646       4087787.426
10 0 59286  55680.000000  0      -1164767.801      -5237145.735       4440990.739
10 0 59286  55740.000000  0      -1196606.020      -4924901.608       4775312.867
10 0 59286  55800.000000  0      -1220568.856      -4591623.990       5089330.695
10 0 59286  55860.000000  0      -1236377.263      -4238788.745       5381707.694
10 0 59286  55920.000000  0      -1243800.009      -3867957.042       5651199.662
10 0 59286  55980.000000  0      -1242655.352      -3480768.125       5896659.985
10 0 59286  56040.000000  0      -1232812.414      -3078931.795       6117044.400
10 0 59286  56100.000000  0      -1214192.259      -2664220.668       6311415.289
10 0 59286  56160.000000  0      -1186768.712      -2238462.250       6478945.543
10 0 59286  56220.000000  0      -1150568.900      -1803530.785       6618922.040
10 0 59286  56280.000000  0      -1105673.506      -1361338.873       6730748.654
10 0 59286  56340.000000  0      -1052216.756       -913828.903       6813948.729
10 0 59286  56400.000000  0       -990386.121       -462964.409       6868167.016
10 0 59286  56460.000000  0       -920421.686        -10721.414       6893171.152
10 0 59286  56520.000000  0       -842615.227        440920.306       6888852.693
10 0 59286  56580.000000  0       -757308.970        889986.005       6855227.613
10 0 59286  56640.000000  0       -664894.069       1334514.683       6792436.250
10 0 59286  56700.000000  0       -565808.818       1772567.739       6700742.783
10 0 59286  56760.000000  0       -460536.568       2202237.545       6580534.193
10 0 59286  56820.000000  0       -349603.393       2621655.840       6432318.688
10 0 59286  56880.000000  0       -233575.505       3029001.967       6256723.702
10 0 59286  56940.000000  0       -113056.449       3422510.983       6054493.370
10 0 59286  57000.000000  0         11315.950       3800481.498       5826485.452
10 0 59286  57060.000000  0        138872.867       4161283.226       5573667.806
10 0 59286  57120.000000  0        268917.969       4503364.215       5297114.418
10 0 59286  57180.000000  0        400731.118       4825257.851       4998001.002
10 0 59286  57240.000000  0        533572.254       5125589.521       4677599.986
10 0 59286  57300.000000  0        666685.351       5403082.688       4337274.997
10 0 59286  57360.000000  0        799302.463       5656564.469       3978475.051
10 0 59286  57420.000000  0        930647.945       5884970.742       3602728.619
10 0 59286  57480.000000  0       1059942.863       6087351.335       3211637.335
10 0 59286  57540.000000  0       1186409.578       6262874.561       2806868.600
99
